{
  "type": "FeatureCollection",
  "features": [
    {
      "type": "Feature",
      "properties": {
        "norad_id": 36707,
        "name": "FENGYUN 1C DEB",
        "group": "fengyun-1c-debris",
        "lat": 35.49815628865018,
        "lon": 23.746793445508693,
        "alt_km": 834.2014112582729,
        "timestamp": "2025-12-09T21:34:11.696803+00:00",
        "meta_object_name": "FENGYUN 1C DEB",
        "meta_object_id": "1999-025EAD",
        "meta_epoch": "2025-12-09T09:32:23.366688",
        "meta_mean_motion": 14.17293777,
        "meta_eccentricity": 0.00499529,
        "meta_inclination": 98.7523,
        "meta_ra_of_asc_node": 29.5616,
        "meta_arg_of_pericenter": 131.2163,
        "meta_mean_anomaly": 229.3333,
        "meta_ephemeris_type": 0,
        "meta_classification_type": "U",
        "meta_norad_cat_id": 36707,
        "meta_element_set_no": 999,
        "meta_rev_at_epoch": 64032,
        "meta_bstar": 0.0012730756,
        "meta_mean_motion_dot": 2.562e-05,
        "meta_mean_motion_ddot": 0,
        "tle_line1": "1 36707U 99025EAD 25343.39749267  .00002562  00000+0  12731-2 0  9992",
        "tle_line2": "2 36707  98.7523  29.5616 0049952 131.2163 229.3333 14.17293777640322"
      },
      "geometry": {
        "type": "Point",
        "coordinates": [
          23.746793445508693,
          35.49815628865018
        ]
      }
    },
    {
      "type": "Feature",
      "properties": {
        "norad_id": 36710,
        "name": "FENGYUN 1C DEB",
        "group": "fengyun-1c-debris",
        "lat": -26.10563254946913,
        "lon": 45.179003822329584,
        "alt_km": 770.6622236692392,
        "timestamp": "2025-12-09T21:34:11.696814+00:00",
        "meta_object_name": "FENGYUN 1C DEB",
        "meta_object_id": "1999-025EAG",
        "meta_epoch": "2025-12-09T10:05:53.606976",
        "meta_mean_motion": 14.49787027,
        "meta_eccentricity": 0.00678732,
        "meta_inclination": 98.3799,
        "meta_ra_of_asc_node": 40.5617,
        "meta_arg_of_pericenter": 191.5881,
        "meta_mean_anomaly": 168.3755,
        "meta_ephemeris_type": 0,
        "meta_classification_type": "U",
        "meta_norad_cat_id": 36710,
        "meta_element_set_no": 999,
        "meta_rev_at_epoch": 64905,
        "meta_bstar": 0.0022522303,
        "meta_mean_motion_dot": 8.905e-05,
        "meta_mean_motion_ddot": 0,
        "tle_line1": "1 36710U 99025EAG 25343.42075934  .00008905  00000+0  22522-2 0  9999",
        "tle_line2": "2 36710  98.3799  40.5617 0067873 191.5881 168.3755 14.49787027649059"
      },
      "geometry": {
        "type": "Point",
        "coordinates": [
          45.179003822329584,
          -26.10563254946913
        ]
      }
    },
    {
      "type": "Feature",
      "properties": {
        "norad_id": 36711,
        "name": "FENGYUN 1C DEB",
        "group": "fengyun-1c-debris",
        "lat": -72.66952838295215,
        "lon": 40.17674095354774,
        "alt_km": 730.533308731935,
        "timestamp": "2025-12-09T21:34:11.696824+00:00",
        "meta_object_name": "FENGYUN 1C DEB",
        "meta_object_id": "1999-025EAH",
        "meta_epoch": "2025-11-29T18:49:32.545344",
        "meta_mean_motion": 14.42080972,
        "meta_eccentricity": 0.01000486,
        "meta_inclination": 100.8061,
        "meta_ra_of_asc_node": 349.6584,
        "meta_arg_of_pericenter": 244.1532,
        "meta_mean_anomaly": 114.9305,
        "meta_ephemeris_type": 0,
        "meta_classification_type": "U",
        "meta_norad_cat_id": 36711,
        "meta_element_set_no": 999,
        "meta_rev_at_epoch": 64124,
        "meta_bstar": 0.0024295961,
        "meta_mean_motion_dot": 8.419e-05,
        "meta_mean_motion_ddot": 0,
        "tle_line1": "1 36711U 99025EAH 25333.78440446  .00008419  00000+0  24296-2 0  9992",
        "tle_line2": "2 36711 100.8061 349.6584 0100048 244.1532 114.9305 14.42080972641246"
      },
      "geometry": {
        "type": "Point",
        "coordinates": [
          40.17674095354774,
          -72.66952838295215
        ]
      }
    },
    {
      "type": "Feature",
      "properties": {
        "norad_id": 36716,
        "name": "FENGYUN 1C DEB",
        "group": "fengyun-1c-debris",
        "lat": 23.93730177820058,
        "lon": 87.11524502145419,
        "alt_km": 914.8865953664754,
        "timestamp": "2025-12-09T21:34:11.696835+00:00",
        "meta_object_name": "FENGYUN 1C DEB",
        "meta_object_id": "1999-025EAN",
        "meta_epoch": "2025-12-09T12:09:36.809856",
        "meta_mean_motion": 13.88411171,
        "meta_eccentricity": 0.01480414,
        "meta_inclination": 99.2281,
        "meta_ra_of_asc_node": 262.5889,
        "meta_arg_of_pericenter": 237.6046,
        "meta_mean_anomaly": 121.0715,
        "meta_ephemeris_type": 0,
        "meta_classification_type": "U",
        "meta_norad_cat_id": 36716,
        "meta_element_set_no": 999,
        "meta_rev_at_epoch": 62886,
        "meta_bstar": 0.00040385999,
        "meta_mean_motion_dot": 4.83e-06,
        "meta_mean_motion_ddot": 0,
        "tle_line1": "1 36716U 99025EAN 25343.50667604  .00000483  00000+0  40386-3 0  9997",
        "tle_line2": "2 36716  99.2281 262.5889 0148041 237.6046 121.0715 13.88411171628864"
      },
      "geometry": {
        "type": "Point",
        "coordinates": [
          87.11524502145419,
          23.93730177820058
        ]
      }
    },
    {
      "type": "Feature",
      "properties": {
        "norad_id": 36724,
        "name": "FENGYUN 1C DEB",
        "group": "fengyun-1c-debris",
        "lat": 8.51837797141586,
        "lon": 13.97838186861193,
        "alt_km": 880.6175888899415,
        "timestamp": "2025-12-09T21:34:11.696846+00:00",
        "meta_object_name": "FENGYUN 1C DEB",
        "meta_object_id": "1999-025EAW",
        "meta_epoch": "2025-12-09T13:49:21.847584",
        "meta_mean_motion": 14.25238593,
        "meta_eccentricity": 0.01036701,
        "meta_inclination": 99.4681,
        "meta_ra_of_asc_node": 15.0625,
        "meta_arg_of_pericenter": 206.572,
        "meta_mean_anomaly": 306.5075,
        "meta_ephemeris_type": 0,
        "meta_classification_type": "U",
        "meta_norad_cat_id": 36724,
        "meta_element_set_no": 999,
        "meta_rev_at_epoch": 57427,
        "meta_bstar": 0.0027974656,
        "meta_mean_motion_dot": 6.914e-05,
        "meta_mean_motion_ddot": 0,
        "tle_line1": "1 36724U 99025EAW 25343.57594731  .00006914  00000+0  27975-2 0  9996",
        "tle_line2": "2 36724  99.4681  15.0625 0103670 206.5720 306.5075 14.25238593574272"
      },
      "geometry": {
        "type": "Point",
        "coordinates": [
          13.97838186861193,
          8.51837797141586
        ]
      }
    },
    {
      "type": "Feature",
      "properties": {
        "norad_id": 36729,
        "name": "FENGYUN 1C DEB",
        "group": "fengyun-1c-debris",
        "lat": -34.867215189984044,
        "lon": 139.66277191831878,
        "alt_km": 843.0695980188275,
        "timestamp": "2025-12-09T21:34:11.696856+00:00",
        "meta_object_name": "FENGYUN 1C DEB",
        "meta_object_id": "1999-025EBB",
        "meta_epoch": "2025-12-05T16:05:18.853440",
        "meta_mean_motion": 14.10305503,
        "meta_eccentricity": 0.0045345,
        "meta_inclination": 98.7068,
        "meta_ra_of_asc_node": 321.6982,
        "meta_arg_of_pericenter": 276.6749,
        "meta_mean_anomaly": 82.9262,
        "meta_ephemeris_type": 0,
        "meta_classification_type": "U",
        "meta_norad_cat_id": 36729,
        "meta_element_set_no": 999,
        "meta_rev_at_epoch": 87152,
        "meta_bstar": 0.00051397144,
        "meta_mean_motion_dot": 8.78e-06,
        "meta_mean_motion_ddot": 0,
        "tle_line1": "1 36729U 99025EBB 25339.67035710  .00000878  00000+0  51397-3 0  9993",
        "tle_line2": "2 36729  98.7068 321.6982 0045345 276.6749  82.9262 14.10305503871524"
      },
      "geometry": {
        "type": "Point",
        "coordinates": [
          139.66277191831878,
          -34.867215189984044
        ]
      }
    },
    {
      "type": "Feature",
      "properties": {
        "norad_id": 36734,
        "name": "FENGYUN 1C DEB",
        "group": "fengyun-1c-debris",
        "lat": 3.0952797869809445,
        "lon": -148.8044194555045,
        "alt_km": 791.6528850371869,
        "timestamp": "2025-12-09T21:34:11.696866+00:00",
        "meta_object_name": "FENGYUN 1C DEB",
        "meta_object_id": "1999-025EBG",
        "meta_epoch": "2025-12-09T02:12:52.327584",
        "meta_mean_motion": 14.25812368,
        "meta_eccentricity": 0.00360244,
        "meta_inclination": 99.0554,
        "meta_ra_of_asc_node": 29.8687,
        "meta_arg_of_pericenter": 229.3842,
        "meta_mean_anomaly": 130.4202,
        "meta_ephemeris_type": 0,
        "meta_classification_type": "U",
        "meta_norad_cat_id": 36734,
        "meta_element_set_no": 999,
        "meta_rev_at_epoch": 82682,
        "meta_bstar": 0.0019663191,
        "meta_mean_motion_dot": 4.662e-05,
        "meta_mean_motion_ddot": 0,
        "tle_line1": "1 36734U 99025EBG 25343.09227231  .00004662  00000+0  19663-2 0  9995",
        "tle_line2": "2 36734  99.0554  29.8687 0036024 229.3842 130.4202 14.25812368826820"
      },
      "geometry": {
        "type": "Point",
        "coordinates": [
          -148.8044194555045,
          3.0952797869809445
        ]
      }
    }
  ]
}